STARLINK-31407          
1 59250U 24049V   26068.21737184  .00001319  00000+0  57445-4 0  9997
2 59250  42.9986 134.9722 0001533 280.0581  80.0097 15.27577137112457
FLOCK 4G-7              
1 62624U 25009R   26068.79996108  .00011422  00000+0  43168-3 0  9991
2 62624  97.3984 150.8270 0001396 336.9783  23.1393 15.27141471 63725
